[{"OBJECT_NAME":"HAWK-11B","OBJECT_ID":"2024-247C","EPOCH":"2026-03-09T10:44:06.809856","MEAN_MOTION":15.2884707,"ECCENTRICITY":0.00046902,"INCLINATION":45.0161,"RA_OF_ASC_NODE":115.761,"ARG_OF_PERICENTER":333.0326,"MEAN_ANOMALY":27.0314,"EPHEMERIS_TYPE":0,"CLASSIFICATION_TYPE":"U","NORAD_CAT_ID":62379,"ELEMENT_SET_NO":999,"REV_AT_EPOCH":6773,"BSTAR":0.00032841927,"MEAN_MOTION_DOT":9.093e-5,"MEAN_MOTION_DDOT":0},{"OBJECT_NAME":"STARLINK-33843","OBJECT_ID":"2025-071Q","EPOCH":"2026-03-09T12:26:52.433952","MEAN_MOTION":15.30190705,"ECCENTRICITY":0.00013713,"INCLINATION":53.1604,"RA_OF_ASC_NODE":140.6904,"ARG_OF_PERICENTER":71.6545,"MEAN_ANOMALY":288.4605,"EPHEMERIS_TYPE":0,"CLASSIFICATION_TYPE":"U","NORAD_CAT_ID":63507,"ELEMENT_SET_NO":999,"REV_AT_EPOCH":5272,"BSTAR":0.0011375767,"MEAN_MOTION_DOT":0.00033475,"MEAN_MOTION_DDOT":0}]
